CHINASAT 6D             
1 52255U 22038A   22129.92624935 -.00000347  00000+0  00000+0 0  9993
2 52255   0.0349 282.7673 0001438 272.7911 130.6740  1.00273949   407
CZ-3B R/B               
1 52256U 22038B   22126.52622751  .00042770 -23455-7  29703-2 0  9998
2 52256  28.5283  12.5459 7204537 192.0496 130.3995  2.40738515   516
DAQI 1                  
1 52257U 22039A   22130.23406780  .00000288  00000+0  72918-4 0  9993
2 52257  98.1357  71.5850 0001568 161.1848 198.9410 14.57674111  3564
CZ-4C R/B               
1 52258U 22039B   22129.90409002  .00001782  00000+0  15721-3 0  9994
2 52258  98.1665  72.6179 0139070 343.5026  16.1647 14.90734792  3592
SZ-13 MODULE            
1 52260U 21092C   22130.23734853  .00020067  00000+0  19516-3 0  9991
2 52260  41.4808  88.7849 0010216 218.3859 141.6256 15.65739129  3402
STARLINK-3810           
1 52261U 22041A   22130.25001157 -.00494924  00000+0 -37068-2 0  9993
2 52261  53.2157 282.9578 0001618  33.5274 324.8900 15.73365639  4156
STARLINK-3761           
1 52262U 22041B   22130.25001157 -.00528359  00000+0 -39731-2 0  9993
2 52262  53.2157 282.9590 0001451  24.8103 332.4482 15.73366634  4156
STARLINK-3786           
1 52263U 22041C   22130.25001157 -.00474131  00000+0 -35485-2 0  9994
2 52263  53.2152 282.9586 0001498  28.8997 328.9747 15.73325343  4148
STARLINK-3795           
1 52264U 22041D   22130.25001157 -.00533271  00000+0 -40126-2 0  9994
2 52264  53.2157 282.9554 0001333  37.4842 321.5726 15.73366153  4142
STARLINK-3740           
1 52265U 22041E   22130.25001157 -.00460465  00000+0 -34408-2 0  9995
2 52265  53.2153 282.9552 0001565  27.8127 331.8428 15.73323388  4150
STARLINK-3739           
1 52266U 22041F   22130.25001157 -.00606288  00000+0 -45940-2 0  9994
2 52266  53.2156 282.9532 0001614  27.6638 332.5848 15.73404553  4150
STARLINK-3748           
1 52267U 22041G   22130.25001157 -.00569199  00000+0 -42983-2 0  9998
2 52267  53.2154 282.9527 0001608  33.4061 327.4522 15.73380907  4159
STARLINK-3746           
1 52268U 22041H   22130.25001157 -.00399884  00000+0 -29658-2 0  9995
2 52268  53.2157 282.9486 0001488  27.9186 334.7050 15.73328204  4158
STARLINK-3791           
1 52269U 22041J   22130.25001157 -.00317725  00000+0 -23364-2 0  9998
2 52269  53.2153 282.9515 0001424  31.0158 330.3940 15.73293941  4152
STARLINK-3804           
1 52270U 22041K   22130.25001157 -.00522317  00000+0 -39195-2 0  9994
2 52270  53.2155 282.9460 0001575  32.5115 331.2971 15.73397300  4148
STARLINK-3788           
1 52271U 22041L   22130.25001157 -.00425389  00000+0 -31636-2 0  9998
2 52271  53.2152 282.9503 0001552  34.7642 327.2736 15.73335928  4151
STARLINK-3781           
1 52272U 22041M   22130.25001157 -.00421176  00000+0 -31301-2 0  9998
2 52272  53.2152 282.9437 0001591  36.4965 328.5097 15.73339974  4157
STARLINK-3782           
1 52273U 22041N   22130.25001157  .00076039  00000+0  54256-3 0  9996
2 52273  53.2136 282.9471 0001573  37.4762 325.8141 15.73145453  4151
STARLINK-3790           
1 52274U 22041P   22130.25001157 -.00460309  00000+0 -34354-2 0  9992
2 52274  53.2159 282.9396 0001634  32.2331 334.5999 15.73351133  4158
STARLINK-3784           
1 52275U 22041Q   22130.25001157 -.00471079  00000+0 -35191-2 0  9999
2 52275  53.2155 282.9451 0001514  27.8370 336.5833 15.73359943  4142
STARLINK-3778           
1 52276U 22041R   22130.25001157 -.00373801  00000+0 -27639-2 0  9992
2 52276  53.2150 282.9372 0001560  23.1066 344.8776 15.73325216  4157
STARLINK-3787           
1 52277U 22041S   22130.25001157 -.00497423  00000+0 -37222-2 0  9999
2 52277  53.2151 282.9427 0001466  23.0775 342.5310 15.73394152  4155
STARLINK-3780           
1 52278U 22041T   22130.25001157  .00109829  00000+0  77189-3 0  9995
2 52278  53.2151 282.9371 0002295  22.4757 345.5302 15.73345987  4154
STARLINK-3686           
1 52279U 22041U   22130.25001157 -.00125007  00000+0 -89926-3 0  9996
2 52279  53.2158 282.9413 0001682  36.0356 330.0914 15.73206152  4152
STARLINK-3764           
1 52280U 22041V   22130.25001157 -.00311091  00000+0 -22852-2 0  9992
2 52280  53.2153 282.9319 0001851  24.9197 345.5265 15.73297259  4159
STARLINK-3779           
1 52281U 22041W   22129.91667824 -.00011774  00000+0 -79524-4 0  9998
2 52281  53.2135 284.5900 0001780  27.1521 251.3272 15.73216658  3538
STARLINK-3783           
1 52282U 22041X   22130.25001157  .00089036  00000+0  63401-3 0  9999
2 52282  53.2142 282.9289 0001742  41.2754 330.3270 15.73128848  4150
STARLINK-3789           
1 52283U 22041Y   22130.25001157 -.00364081  00000+0 -26839-2 0  9991
2 52283  53.2154 282.9354 0001572  19.2828 349.8940 15.73367858  4150
STARLINK-3561           
1 52284U 22041Z   22130.25001157 -.00015295  00000+0 -10474-3 0  9991
2 52284  53.2145 282.9255 0001628  32.5240 340.3190 15.73202409  4152
STARLINK-3775           
1 52285U 22041AA  22130.25001157 -.00210828  00000+0 -15314-2 0  9998
2 52285  53.2149 282.9339 0001852  31.2118 338.5536 15.73262443  4156
STARLINK-3802           
1 52286U 22041AB  22130.25001157  .00084935  00000+0  60504-3 0  9997
2 52286  53.2142 282.9237 0001570  37.9388 336.0408 15.73139180  4158
STARLINK-3822           
1 52287U 22041AC  22130.33334491 -.00558500  00000+0 -42151-2 0  9990
2 52287  53.2151 282.5192 0001906  32.8527  90.3505 15.73362382  4168
STARLINK-3776           
1 52288U 22041AD  22130.25001157 -.00015792  00000+0 -10826-3 0  9998
2 52288  53.2132 282.9224 0001445  32.2187 342.3688 15.73210120  4155
STARLINK-3751           
1 52289U 22041AE  22130.25001157  .00092716  00000+0  65933-3 0  9997
2 52289  53.2132 282.9278 0001763  30.3547 341.8386 15.73143390  4150
STARLINK-3772           
1 52290U 22041AF  22129.91667824 -.00005758  00000+0 -36627-4 0  9990
2 52290  53.2145 284.5699 0002027  23.0332 264.4701 15.73199016  3534
STARLINK-3773           
1 52291U 22041AG  22130.25001157 -.00011892  00000+0 -80421-4 0  9998
2 52291  53.2132 282.9252 0001530  35.5786 337.8137 15.73202436  4155
STARLINK-3753           
1 52292U 22041AH  22129.91667824 -.00003275  00000+0 -18899-4 0  9995
2 52292  53.2132 284.5678 0001883  22.0155 266.5960 15.73222028  3530
STARLINK-3771           
1 52293U 22041AJ  22130.25001157  .00078990  00000+0  56330-3 0  9991
2 52293  53.2134 282.9218 0001576  31.3653 343.8275 15.73143154  4159
STARLINK-3777           
1 52294U 22041AK  22129.91667824  .00032264  00000+0  23352-3 0  9994
2 52294  53.2132 284.5669 0001870  28.6669 260.5741 15.73188684  3530
STARLINK-3765           
1 52295U 22041AL  22130.25001157 -.00020991  00000+0 -14530-3 0  9999
2 52295  53.2131 282.9202 0001725  22.9358 352.8235 15.73232917  4157
STARLINK-3766           
1 52296U 22041AM  22129.91667824  .00033207  00000+0  24019-3 0  9995
2 52296  53.2133 284.5634 0001849  27.7422 263.3097 15.73188600  3531
STARLINK-3758           
1 52297U 22041AN  22130.25001157  .00098642  00000+0  70058-3 0  9994
2 52297  53.2133 282.9179 0001692  30.7130 346.2850 15.73147391  4153
STARLINK-3760           
1 52298U 22041AP  22129.91667824  .00033770  00000+0  24397-3 0  9991
2 52298  53.2134 284.5617 0001986  30.7804 260.8287 15.73208113  3530
STARLINK-3759           
1 52299U 22041AQ  22129.91667824 -.00006480  00000+0 -41748-4 0  9992
2 52299  53.2135 284.5647 0001956  23.7731 266.6581 15.73213812  3536
STARLINK-3769           
1 52300U 22041AR  22130.25001157 -.00031515  00000+0 -22071-3 0  9999
2 52300  53.2136 282.9075 0001552  35.6125 346.1100 15.73226074  4152
STARLINK-3768           
1 52301U 22041AS  22130.25001157 -.00167536  00000+0 -12125-2 0  9991
2 52301  53.2134 282.9129 0001857  46.8285 332.3606 15.73211056  4141
STARLINK-3564           
1 52302U 22041AT  22130.25001157 -.00033814  00000+0 -23726-3 0  9993
2 52302  53.2134 282.9036 0001706  33.0412 350.4821 15.73219400  4143
STARLINK-3742           
1 52303U 22041AU  22130.25001157 -.00014288  00000+0 -97583-4 0  9991
2 52303  53.2133 282.9089 0001858  31.8949 349.2597 15.73191351  4151
STARLINK-3744           
1 52304U 22041AV  22130.25001157  .00062333  00000+0  44588-3 0  9990
2 52304  53.2135 282.9021 0001723  31.6861 352.4403 15.73166290  4158
STARLINK-3724           
1 52305U 22041AW  22129.91667824  .00038266  00000+0  27598-3 0  9991
2 52305  53.2135 284.5585 0001807  26.3762 267.0240 15.73186054  3537
STARLINK-3747           
1 52306U 22041AX  22130.25001157 -.00023685  00000+0 -16411-3 0  9995
2 52306  53.2133 282.9005 0001533  44.2882 340.6929 15.73297916  4154
STARLINK-3755           
1 52307U 22041AY  22129.91667824 -.00023794  00000+0 -16535-3 0  9994
2 52307  53.2136 284.5574 0001902  30.5566 263.4348 15.73231333  3533
STARLINK-3745           
1 52308U 22041AZ  22130.25001157  .00095475  00000+0  67836-3 0  9998
2 52308  53.2135 282.8982 0001689  41.2852 344.6091 15.73151695  4154
STARLINK-3756           
1 52309U 22041BA  22130.25001157 -.00013360  00000+0 -90496-4 0  9993
2 52309  53.2136 282.9001 0001602  15.3811  10.1168 15.73306467  4150
STARLINK-3688           
1 52310U 22041BB  22130.25001157 -.00027348  00000+0 -19077-3 0  9991
2 52310  53.2136 282.8956 0001664  33.5500 353.5167 15.73234811  4151
STARLINK-3750           
1 52311U 22041BC  22130.25001157  .00091121  00000+0  64782-3 0  9993
2 52311  53.2137 282.8980 0001762  38.7175 347.7781 15.73156820  4154
STARLINK-3752           
1 52312U 22041BD  22130.25001157  .00075734  00000+0  54013-3 0  9992
2 52312  53.2137 282.8940 0001756  40.8715 346.8179 15.73157932  4154
STARLINK-3749           
1 52313U 22041BE  22130.25001157  .00091076  00000+0  64796-3 0  9999
2 52313  53.2139 282.8938 0001550  44.1136 344.2029 15.73140607  4157
FALCON 9 DEB            
1 52314U 22041BF  22130.14957414  .00267391  39216-4  65358-3 0  9990
2 52314  53.2064 281.5207 0015659 335.9276  24.1020 15.95493996  2947
